QIANFAN-35              
1 61568U 24185S   26063.82023699  .00001161  00000+0  46136-3 0  9993
2 61568  88.9744  67.2255 0007564  34.2571 325.9110 14.28117208 81890
QIANFAN-36              
1 61569U 24185T   26063.82063977  .00000142  00000+0  18712-3 0  9994
2 61569  88.9716  72.4782 0006940 148.3458 211.8114 13.55613589 79044
QIANFAN-37              
1 62238U 24232B   26063.83313786  .00000078  00000+0  10252-3 0  9997
2 62238  89.0050  33.0367 0001690  96.9779 263.1564 13.51005184110254
QIANFAN-38              
1 62239U 24232C   26063.85777502  .00000072  00000+0  93805-4 0  9990
2 62239  89.0057  32.9556 0013493 325.6873  34.3405 13.51003749110315
QIANFAN-39              
1 62240U 24232D   26063.83823156  .00000509  00000+0  20927-3 0  9996
2 62240  89.0056  27.9166 0016461 161.4773 198.7023 14.25435732113081
QIANFAN-40              
1 62241U 24232E   26063.81662698  .00000077  00000+0  10138-3 0  9990
2 62241  89.0085  32.5673 0012812 334.8539  25.1986 13.51002981110678
QIANFAN-41              
1 62242U 24232F   26063.82489916  .00000080  00000+0  10548-3 0  9991
2 62242  89.0055  32.9091 0012787 321.8746  38.1499 13.51004652110334
QIANFAN-42              
1 62243U 24232G   26063.74799175  .00000476  00000+0  19877-3 0  9997
2 62243  89.0054  27.9863 0015070 167.2187 192.9391 14.24529540113044
QIANFAN-43              
1 62244U 24232H   26063.82074285  .00000072  00000+0  92868-4 0  9999
2 62244  89.0059  32.9785 0014466 326.6797  33.3443 13.51004669 78949
QIANFAN-44              
1 62245U 24232J   26063.80840682  .00000063  00000+0  79873-4 0  9991
2 62245  89.0058  32.7891 0012604 324.5414  35.4898 13.51002590110417
QIANFAN-45              
1 62246U 24232K   26063.84957979  .00000077  00000+0  10144-3 0  9994
2 62246  89.0062  32.9343 0013245 323.6022  36.4227 13.51000332110345
QIANFAN-46              
1 62247U 24232L   26063.80016380  .00000075  00000+0  98127-4 0  9999
2 62247  89.0057  33.0049 0013480 329.6445  30.3924 13.51003223110294
QIANFAN-47              
1 62248U 24232M   26063.80427548  .00000064  00000+0  80647-4 0  9998
2 62248  89.0053  32.9342 0013879 328.4954  31.5365 13.51003115110325
QIANFAN-48              
1 62249U 24232N   26063.84131526  .00000063  00000+0  79457-4 0  9997
2 62249  89.0057  32.9356 0016209 330.0890  29.9334 13.51003284110338
QIANFAN-49              
1 62250U 24232P   26063.82897471  .00000088  00000+0  11748-3 0  9990
2 62250  89.0056  32.9488 0013126 325.7301  34.3002 13.51002474 78928
QIANFAN-50              
1 62251U 24232Q   26063.85365071  .00000067  00000+0  84638-4 0  9996
2 62251  89.0062  32.9588 0014808 326.3049  33.7160 13.51003337 78951
QIANFAN-51              
1 62252U 24232R   26063.76316177  .00000071  00000+0  91541-4 0  9996
2 62252  89.0056  32.9567 0012454 331.9122  28.1356 13.51004159 78937
