[{"OBJECT_NAME":"QIANFAN-35","OBJECT_ID":"2024-185S","EPOCH":"2026-03-04T19:41:08.475936","MEAN_MOTION":14.28117208,"ECCENTRICITY":0.0007564,"INCLINATION":88.9744,"RA_OF_ASC_NODE":67.2255,"ARG_OF_PERICENTER":34.2571,"MEAN_ANOMALY":325.911,"EPHEMERIS_TYPE":0,"CLASSIFICATION_TYPE":"U","NORAD_CAT_ID":61568,"ELEMENT_SET_NO":999,"REV_AT_EPOCH":8189,"BSTAR":0.00046136,"MEAN_MOTION_DOT":1.161e-5,"MEAN_MOTION_DDOT":0},{"OBJECT_NAME":"QIANFAN-36","OBJECT_ID":"2024-185T","EPOCH":"2026-03-04T19:41:43.276128","MEAN_MOTION":13.55613589,"ECCENTRICITY":0.000694,"INCLINATION":88.9716,"RA_OF_ASC_NODE":72.4782,"ARG_OF_PERICENTER":148.3458,"MEAN_ANOMALY":211.8114,"EPHEMERIS_TYPE":0,"CLASSIFICATION_TYPE":"U","NORAD_CAT_ID":61569,"ELEMENT_SET_NO":999,"REV_AT_EPOCH":7904,"BSTAR":0.00018712,"MEAN_MOTION_DOT":1.42e-6,"MEAN_MOTION_DDOT":0},{"OBJECT_NAME":"QIANFAN-37","OBJECT_ID":"2024-232B","EPOCH":"2026-03-04T19:59:43.111104","MEAN_MOTION":13.51005184,"ECCENTRICITY":0.000169,"INCLINATION":89.005,"RA_OF_ASC_NODE":33.0367,"ARG_OF_PERICENTER":96.9779,"MEAN_ANOMALY":263.1564,"EPHEMERIS_TYPE":0,"CLASSIFICATION_TYPE":"U","NORAD_CAT_ID":62238,"ELEMENT_SET_NO":999,"REV_AT_EPOCH":11025,"BSTAR":0.00010252,"MEAN_MOTION_DOT":7.8e-7,"MEAN_MOTION_DDOT":0},{"OBJECT_NAME":"QIANFAN-38","OBJECT_ID":"2024-232C","EPOCH":"2026-03-04T20:35:11.761728","MEAN_MOTION":13.51003749,"ECCENTRICITY":0.0013493,"INCLINATION":89.0057,"RA_OF_ASC_NODE":32.9556,"ARG_OF_PERICENTER":325.6873,"MEAN_ANOMALY":34.3405,"EPHEMERIS_TYPE":0,"CLASSIFICATION_TYPE":"U","NORAD_CAT_ID":62239,"ELEMENT_SET_NO":999,"REV_AT_EPOCH":11031,"BSTAR":9.3805e-5,"MEAN_MOTION_DOT":7.2e-7,"MEAN_MOTION_DDOT":0},{"OBJECT_NAME":"QIANFAN-39","OBJECT_ID":"2024-232D","EPOCH":"2026-03-04T20:07:03.206784","MEAN_MOTION":14.25435732,"ECCENTRICITY":0.0016461,"INCLINATION":89.0056,"RA_OF_ASC_NODE":27.9166,"ARG_OF_PERICENTER":161.4773,"MEAN_ANOMALY":198.7023,"EPHEMERIS_TYPE":0,"CLASSIFICATION_TYPE":"U","NORAD_CAT_ID":62240,"ELEMENT_SET_NO":999,"REV_AT_EPOCH":11308,"BSTAR":0.00020927,"MEAN_MOTION_DOT":5.09e-6,"MEAN_MOTION_DDOT":0},{"OBJECT_NAME":"QIANFAN-40","OBJECT_ID":"2024-232E","EPOCH":"2026-03-04T19:35:56.571072","MEAN_MOTION":13.51002981,"ECCENTRICITY":0.0012812,"INCLINATION":89.0085,"RA_OF_ASC_NODE":32.5673,"ARG_OF_PERICENTER":334.8539,"MEAN_ANOMALY":25.1986,"EPHEMERIS_TYPE":0,"CLASSIFICATION_TYPE":"U","NORAD_CAT_ID":62241,"ELEMENT_SET_NO":999,"REV_AT_EPOCH":11067,"BSTAR":0.00010138,"MEAN_MOTION_DOT":7.7e-7,"MEAN_MOTION_DDOT":0},{"OBJECT_NAME":"QIANFAN-41","OBJECT_ID":"2024-232F","EPOCH":"2026-03-04T19:47:51.287424","MEAN_MOTION":13.51004652,"ECCENTRICITY":0.0012787,"INCLINATION":89.0055,"RA_OF_ASC_NODE":32.9091,"ARG_OF_PERICENTER":321.8746,"MEAN_ANOMALY":38.1499,"EPHEMERIS_TYPE":0,"CLASSIFICATION_TYPE":"U","NORAD_CAT_ID":62242,"ELEMENT_SET_NO":999,"REV_AT_EPOCH":11033,"BSTAR":0.00010548,"MEAN_MOTION_DOT":8.0e-7,"MEAN_MOTION_DDOT":0},{"OBJECT_NAME":"QIANFAN-42","OBJECT_ID":"2024-232G","EPOCH":"2026-03-04T17:57:06.487200","MEAN_MOTION":14.2452954,"ECCENTRICITY":0.001507,"INCLINATION":89.0054,"RA_OF_ASC_NODE":27.9863,"ARG_OF_PERICENTER":167.2187,"MEAN_ANOMALY":192.9391,"EPHEMERIS_TYPE":0,"CLASSIFICATION_TYPE":"U","NORAD_CAT_ID":62243,"ELEMENT_SET_NO":999,"REV_AT_EPOCH":11304,"BSTAR":0.00019877,"MEAN_MOTION_DOT":4.76e-6,"MEAN_MOTION_DDOT":0},{"OBJECT_NAME":"QIANFAN-43","OBJECT_ID":"2024-232H","EPOCH":"2026-03-04T19:41:52.182240","MEAN_MOTION":13.51004669,"ECCENTRICITY":0.0014466,"INCLINATION":89.0059,"RA_OF_ASC_NODE":32.9785,"ARG_OF_PERICENTER":326.6797,"MEAN_ANOMALY":33.3443,"EPHEMERIS_TYPE":0,"CLASSIFICATION_TYPE":"U","NORAD_CAT_ID":62244,"ELEMENT_SET_NO":999,"REV_AT_EPOCH":7894,"BSTAR":9.2868e-5,"MEAN_MOTION_DOT":7.2e-7,"MEAN_MOTION_DDOT":0},{"OBJECT_NAME":"QIANFAN-44","OBJECT_ID":"2024-232J","EPOCH":"2026-03-04T19:24:06.349248","MEAN_MOTION":13.5100259,"ECCENTRICITY":0.0012604,"INCLINATION":89.0058,"RA_OF_ASC_NODE":32.7891,"ARG_OF_PERICENTER":324.5414,"MEAN_ANOMALY":35.4898,"EPHEMERIS_TYPE":0,"CLASSIFICATION_TYPE":"U","NORAD_CAT_ID":62245,"ELEMENT_SET_NO":999,"REV_AT_EPOCH":11041,"BSTAR":7.9873e-5,"MEAN_MOTION_DOT":6.3e-7,"MEAN_MOTION_DDOT":0},{"OBJECT_NAME":"QIANFAN-45","OBJECT_ID":"2024-232K","EPOCH":"2026-03-04T20:23:23.693856","MEAN_MOTION":13.51000332,"ECCENTRICITY":0.0013245,"INCLINATION":89.0062,"RA_OF_ASC_NODE":32.9343,"ARG_OF_PERICENTER":323.6022,"MEAN_ANOMALY":36.4227,"EPHEMERIS_TYPE":0,"CLASSIFICATION_TYPE":"U","NORAD_CAT_ID":62246,"ELEMENT_SET_NO":999,"REV_AT_EPOCH":11034,"BSTAR":0.00010144,"MEAN_MOTION_DOT":7.7e-7,"MEAN_MOTION_DDOT":0},{"OBJECT_NAME":"QIANFAN-46","OBJECT_ID":"2024-232L","EPOCH":"2026-03-04T19:12:14.152320","MEAN_MOTION":13.51003223,"ECCENTRICITY":0.001348,"INCLINATION":89.0057,"RA_OF_ASC_NODE":33.0049,"ARG_OF_PERICENTER":329.6445,"MEAN_ANOMALY":30.3924,"EPHEMERIS_TYPE":0,"CLASSIFICATION_TYPE":"U","NORAD_CAT_ID":62247,"ELEMENT_SET_NO":999,"REV_AT_EPOCH":11029,"BSTAR":9.8127e-5,"MEAN_MOTION_DOT":7.5e-7,"MEAN_MOTION_DDOT":0},{"OBJECT_NAME":"QIANFAN-47","OBJECT_ID":"2024-232M","EPOCH":"2026-03-04T19:18:09.401472","MEAN_MOTION":13.51003115,"ECCENTRICITY":0.0013879,"INCLINATION":89.0053,"RA_OF_ASC_NODE":32.9342,"ARG_OF_PERICENTER":328.4954,"MEAN_ANOMALY":31.5365,"EPHEMERIS_TYPE":0,"CLASSIFICATION_TYPE":"U","NORAD_CAT_ID":62248,"ELEMENT_SET_NO":999,"REV_AT_EPOCH":11032,"BSTAR":8.0647e-5,"MEAN_MOTION_DOT":6.4e-7,"MEAN_MOTION_DDOT":0},{"OBJECT_NAME":"QIANFAN-48","OBJECT_ID":"2024-232N","EPOCH":"2026-03-04T20:11:29.638464","MEAN_MOTION":13.51003284,"ECCENTRICITY":0.0016209,"INCLINATION":89.0057,"RA_OF_ASC_NODE":32.9356,"ARG_OF_PERICENTER":330.089,"MEAN_ANOMALY":29.9334,"EPHEMERIS_TYPE":0,"CLASSIFICATION_TYPE":"U","NORAD_CAT_ID":62249,"ELEMENT_SET_NO":999,"REV_AT_EPOCH":11033,"BSTAR":7.9457e-5,"MEAN_MOTION_DOT":6.3e-7,"MEAN_MOTION_DDOT":0},{"OBJECT_NAME":"QIANFAN-49","OBJECT_ID":"2024-232P","EPOCH":"2026-03-04T19:53:43.414944","MEAN_MOTION":13.51002474,"ECCENTRICITY":0.0013126,"INCLINATION":89.0056,"RA_OF_ASC_NODE":32.9488,"ARG_OF_PERICENTER":325.7301,"MEAN_ANOMALY":34.3002,"EPHEMERIS_TYPE":0,"CLASSIFICATION_TYPE":"U","NORAD_CAT_ID":62250,"ELEMENT_SET_NO":999,"REV_AT_EPOCH":7892,"BSTAR":0.00011748,"MEAN_MOTION_DOT":8.8e-7,"MEAN_MOTION_DDOT":0},{"OBJECT_NAME":"QIANFAN-50","OBJECT_ID":"2024-232Q","EPOCH":"2026-03-04T20:29:15.421344","MEAN_MOTION":13.51003337,"ECCENTRICITY":0.0014808,"INCLINATION":89.0062,"RA_OF_ASC_NODE":32.9588,"ARG_OF_PERICENTER":326.3049,"MEAN_ANOMALY":33.716,"EPHEMERIS_TYPE":0,"CLASSIFICATION_TYPE":"U","NORAD_CAT_ID":62251,"ELEMENT_SET_NO":999,"REV_AT_EPOCH":7895,"BSTAR":8.4638e-5,"MEAN_MOTION_DOT":6.7e-7,"MEAN_MOTION_DDOT":0},{"OBJECT_NAME":"QIANFAN-51","OBJECT_ID":"2024-232R","EPOCH":"2026-03-04T18:18:57.176928","MEAN_MOTION":13.51004159,"ECCENTRICITY":0.0012454,"INCLINATION":89.0056,"RA_OF_ASC_NODE":32.9567,"ARG_OF_PERICENTER":331.9122,"MEAN_ANOMALY":28.1356,"EPHEMERIS_TYPE":0,"CLASSIFICATION_TYPE":"U","NORAD_CAT_ID":62252,"ELEMENT_SET_NO":999,"REV_AT_EPOCH":7893,"BSTAR":9.1541e-5,"MEAN_MOTION_DOT":7.1e-7,"MEAN_MOTION_DDOT":0}]
